[{"OBJECT_NAME":"ORBCOMM FM23","OBJECT_ID":"1998-053C","EPOCH":"2026-02-01T15:50:02.317056","MEAN_MOTION":14.38185667,"ECCENTRICITY":0.00024444,"INCLINATION":45.0074,"RA_OF_ASC_NODE":264.0818,"ARG_OF_PERICENTER":310.7208,"MEAN_ANOMALY":49.3428,"EPHEMERIS_TYPE":0,"CLASSIFICATION_TYPE":"U","NORAD_CAT_ID":25477,"ELEMENT_SET_NO":999,"REV_AT_EPOCH":43042,"BSTAR":0.00036477889,"MEAN_MOTION_DOT":9.75e-6,"MEAN_MOTION_DDOT":0},{"OBJECT_NAME":"ORBCOMM FM24","OBJECT_ID":"1998-053D","EPOCH":"2026-02-01T17:03:28.806048","MEAN_MOTION":14.38819695,"ECCENTRICITY":0.00022502,"INCLINATION":45.0071,"RA_OF_ASC_NODE":260.2581,"ARG_OF_PERICENTER":320.9838,"MEAN_ANOMALY":39.0848,"EPHEMERIS_TYPE":0,"CLASSIFICATION_TYPE":"U","NORAD_CAT_ID":25478,"ELEMENT_SET_NO":999,"REV_AT_EPOCH":43049,"BSTAR":0.00036973513,"MEAN_MOTION_DOT":1.005e-5,"MEAN_MOTION_DDOT":0},{"OBJECT_NAME":"ORBCOMM FM25","OBJECT_ID":"1998-053E","EPOCH":"2026-02-01T21:29:06.072288","MEAN_MOTION":14.38789409,"ECCENTRICITY":0.00045588,"INCLINATION":45.0063,"RA_OF_ASC_NODE":257.6899,"ARG_OF_PERICENTER":326.0046,"MEAN_ANOMALY":34.051,"EPHEMERIS_TYPE":0,"CLASSIFICATION_TYPE":"U","NORAD_CAT_ID":25479,"ELEMENT_SET_NO":999,"REV_AT_EPOCH":43081,"BSTAR":0.00034852641,"MEAN_MOTION_DOT":9.39e-6,"MEAN_MOTION_DDOT":0},{"OBJECT_NAME":"ORBCOMM FM26","OBJECT_ID":"1998-053F","EPOCH":"2026-02-01T15:33:18.207360","MEAN_MOTION":14.37734454,"ECCENTRICITY":0.00065021,"INCLINATION":45.0059,"RA_OF_ASC_NODE":257.0605,"ARG_OF_PERICENTER":338.5993,"MEAN_ANOMALY":21.4582,"EPHEMERIS_TYPE":0,"CLASSIFICATION_TYPE":"U","NORAD_CAT_ID":25480,"ELEMENT_SET_NO":999,"REV_AT_EPOCH":43066,"BSTAR":0.00030710863,"MEAN_MOTION_DOT":7.9e-6,"MEAN_MOTION_DDOT":0},{"OBJECT_NAME":"ORBCOMM FM27","OBJECT_ID":"1998-053G","EPOCH":"2026-02-01T21:03:39.316032","MEAN_MOTION":14.38828529,"ECCENTRICITY":0.00010373,"INCLINATION":45.0046,"RA_OF_ASC_NODE":257.8858,"ARG_OF_PERICENTER":358.4359,"MEAN_ANOMALY":1.6486,"EPHEMERIS_TYPE":0,"CLASSIFICATION_TYPE":"U","NORAD_CAT_ID":25481,"ELEMENT_SET_NO":999,"REV_AT_EPOCH":43074,"BSTAR":0.00036470817,"MEAN_MOTION_DOT":9.9e-6,"MEAN_MOTION_DDOT":0},{"OBJECT_NAME":"ORBCOMM FM28","OBJECT_ID":"1998-053H","EPOCH":"2026-02-01T21:22:46.616448","MEAN_MOTION":14.38934792,"ECCENTRICITY":0.00037009,"INCLINATION":45.0039,"RA_OF_ASC_NODE":195.0527,"ARG_OF_PERICENTER":19.8361,"MEAN_ANOMALY":340.2631,"EPHEMERIS_TYPE":0,"CLASSIFICATION_TYPE":"U","NORAD_CAT_ID":25482,"ELEMENT_SET_NO":999,"REV_AT_EPOCH":43143,"BSTAR":0.0003794828,"MEAN_MOTION_DOT":1.038e-5,"MEAN_MOTION_DDOT":0},{"OBJECT_NAME":"ORBCOMM FM30","OBJECT_ID":"1999-065A","EPOCH":"2026-02-01T19:41:26.356416","MEAN_MOTION":14.37897658,"ECCENTRICITY":0.00042384,"INCLINATION":45.0314,"RA_OF_ASC_NODE":82.3117,"ARG_OF_PERICENTER":83.6811,"MEAN_ANOMALY":276.4521,"EPHEMERIS_TYPE":0,"CLASSIFICATION_TYPE":"U","NORAD_CAT_ID":25980,"ELEMENT_SET_NO":999,"REV_AT_EPOCH":36749,"BSTAR":0.00035547693,"MEAN_MOTION_DOT":9.4e-6,"MEAN_MOTION_DDOT":0},{"OBJECT_NAME":"ORBCOMM FM31","OBJECT_ID":"1999-065B","EPOCH":"2026-02-01T12:38:31.668288","MEAN_MOTION":14.37819562,"ECCENTRICITY":0.0002248,"INCLINATION":45.0228,"RA_OF_ASC_NODE":77.149,"ARG_OF_PERICENTER":133.2767,"MEAN_ANOMALY":226.827,"EPHEMERIS_TYPE":0,"CLASSIFICATION_TYPE":"U","NORAD_CAT_ID":25981,"ELEMENT_SET_NO":999,"REV_AT_EPOCH":36700,"BSTAR":0.00037037994,"MEAN_MOTION_DOT":9.84e-6,"MEAN_MOTION_DDOT":0},{"OBJECT_NAME":"ORBCOMM FM32","OBJECT_ID":"1999-065C","EPOCH":"2026-02-01T12:22:43.498272","MEAN_MOTION":14.36884347,"ECCENTRICITY":0.00044993,"INCLINATION":45.0155,"RA_OF_ASC_NODE":95.3092,"ARG_OF_PERICENTER":114.4922,"MEAN_ANOMALY":245.6396,"EPHEMERIS_TYPE":0,"CLASSIFICATION_TYPE":"U","NORAD_CAT_ID":25982,"ELEMENT_SET_NO":999,"REV_AT_EPOCH":36757,"BSTAR":0.00037233463,"MEAN_MOTION_DOT":9.69e-6,"MEAN_MOTION_DDOT":0},{"OBJECT_NAME":"ORBCOMM FM33","OBJECT_ID":"1999-065D","EPOCH":"2026-02-01T21:23:07.065600","MEAN_MOTION":14.40699494,"ECCENTRICITY":0.00064618,"INCLINATION":45.03,"RA_OF_ASC_NODE":346.3318,"ARG_OF_PERICENTER":140.9778,"MEAN_ANOMALY":219.1539,"EPHEMERIS_TYPE":0,"CLASSIFICATION_TYPE":"U","NORAD_CAT_ID":25983,"ELEMENT_SET_NO":999,"REV_AT_EPOCH":36918,"BSTAR":0.0003950467,"MEAN_MOTION_DOT":1.131e-5,"MEAN_MOTION_DDOT":0},{"OBJECT_NAME":"ORBCOMM FM36","OBJECT_ID":"1999-065E","EPOCH":"2026-02-01T12:37:13.723392","MEAN_MOTION":14.38873491,"ECCENTRICITY":0.00025788,"INCLINATION":45.0387,"RA_OF_ASC_NODE":83.4628,"ARG_OF_PERICENTER":327.4482,"MEAN_ANOMALY":32.6208,"EPHEMERIS_TYPE":0,"CLASSIFICATION_TYPE":"U","NORAD_CAT_ID":25984,"ELEMENT_SET_NO":999,"REV_AT_EPOCH":36744,"BSTAR":0.00045964726,"MEAN_MOTION_DOT":1.285e-5,"MEAN_MOTION_DDOT":0},{"OBJECT_NAME":"ORBCOMM FM35","OBJECT_ID":"1999-065F","EPOCH":"2026-02-01T12:52:38.103168","MEAN_MOTION":14.37779265,"ECCENTRICITY":0.00023306,"INCLINATION":45.0392,"RA_OF_ASC_NODE":90.3274,"ARG_OF_PERICENTER":137.403,"MEAN_ANOMALY":222.7,"EPHEMERIS_TYPE":0,"CLASSIFICATION_TYPE":"U","NORAD_CAT_ID":25985,"ELEMENT_SET_NO":999,"REV_AT_EPOCH":36778,"BSTAR":0.00043591036,"MEAN_MOTION_DOT":1.182e-5,"MEAN_MOTION_DDOT":0},{"OBJECT_NAME":"ORBCOMM FM34","OBJECT_ID":"1999-065G","EPOCH":"2026-02-01T12:07:38.872992","MEAN_MOTION":14.37702658,"ECCENTRICITY":0.00018296,"INCLINATION":45.0388,"RA_OF_ASC_NODE":90.9652,"ARG_OF_PERICENTER":39.0498,"MEAN_ANOMALY":321.0482,"EPHEMERIS_TYPE":0,"CLASSIFICATION_TYPE":"U","NORAD_CAT_ID":25986,"ELEMENT_SET_NO":999,"REV_AT_EPOCH":36789,"BSTAR":0.00035738568,"MEAN_MOTION_DOT":9.42e-6,"MEAN_MOTION_DDOT":0},{"OBJECT_NAME":"ORBCOMM FM38","OBJECT_ID":"2008-031A","EPOCH":"2026-02-02T00:10:02.183808","MEAN_MOTION":14.8255944,"ECCENTRICITY":0.00048737,"INCLINATION":48.4399,"RA_OF_ASC_NODE":299.0695,"ARG_OF_PERICENTER":310.4735,"MEAN_ANOMALY":49.5755,"EPHEMERIS_TYPE":0,"CLASSIFICATION_TYPE":"U","NORAD_CAT_ID":33060,"ELEMENT_SET_NO":999,"REV_AT_EPOCH":94883,"BSTAR":0.00024803008,"MEAN_MOTION_DOT":1.799e-5,"MEAN_MOTION_DDOT":0},{"OBJECT_NAME":"ORBCOMM FM41","OBJECT_ID":"2008-031B","EPOCH":"2026-02-01T19:35:24.605664","MEAN_MOTION":14.82098396,"ECCENTRICITY":0.00042009,"INCLINATION":48.4439,"RA_OF_ASC_NODE":308.5818,"ARG_OF_PERICENTER":294.1589,"MEAN_ANOMALY":110.8265,"EPHEMERIS_TYPE":0,"CLASSIFICATION_TYPE":"U","NORAD_CAT_ID":33061,"ELEMENT_SET_NO":999,"REV_AT_EPOCH":94828,"BSTAR":0.00024687175,"MEAN_MOTION_DOT":1.768e-5,"MEAN_MOTION_DDOT":0},{"OBJECT_NAME":"ORBCOMM FM29","OBJECT_ID":"2008-031C","EPOCH":"2026-02-01T22:09:21.163968","MEAN_MOTION":14.82264668,"ECCENTRICITY":0.00058534,"INCLINATION":48.4394,"RA_OF_ASC_NODE":315.5583,"ARG_OF_PERICENTER":294.6335,"MEAN_ANOMALY":150.5863,"EPHEMERIS_TYPE":0,"CLASSIFICATION_TYPE":"U","NORAD_CAT_ID":33062,"ELEMENT_SET_NO":999,"REV_AT_EPOCH":94821,"BSTAR":0.00026839612,"MEAN_MOTION_DOT":1.95e-5,"MEAN_MOTION_DDOT":0},{"OBJECT_NAME":"ORBCOMM FM39","OBJECT_ID":"2008-031D","EPOCH":"2026-02-01T20:03:04.728096","MEAN_MOTION":14.80666327,"ECCENTRICITY":0.00068582,"INCLINATION":48.441,"RA_OF_ASC_NODE":342.8809,"ARG_OF_PERICENTER":265.7159,"MEAN_ANOMALY":94.2973,"EPHEMERIS_TYPE":0,"CLASSIFICATION_TYPE":"U","NORAD_CAT_ID":33063,"ELEMENT_SET_NO":999,"REV_AT_EPOCH":94781,"BSTAR":0.00025323579,"MEAN_MOTION_DOT":1.753e-5,"MEAN_MOTION_DDOT":0},{"OBJECT_NAME":"ORBCOMM FM37","OBJECT_ID":"2008-031E","EPOCH":"2026-02-01T22:09:34.123104","MEAN_MOTION":14.80861002,"ECCENTRICITY":0.0005474,"INCLINATION":48.4403,"RA_OF_ASC_NODE":330.6279,"ARG_OF_PERICENTER":285.0904,"MEAN_ANOMALY":151.8431,"EPHEMERIS_TYPE":0,"CLASSIFICATION_TYPE":"U","NORAD_CAT_ID":33064,"ELEMENT_SET_NO":999,"REV_AT_EPOCH":94808,"BSTAR":0.00024145384,"MEAN_MOTION_DOT":1.67e-5,"MEAN_MOTION_DDOT":0},{"OBJECT_NAME":"ORBCOMM FM40","OBJECT_ID":"2008-031F","EPOCH":"2026-02-01T19:01:16.222368","MEAN_MOTION":14.83454774,"ECCENTRICITY":0.00062945,"INCLINATION":48.4417,"RA_OF_ASC_NODE":311.198,"ARG_OF_PERICENTER":300.0249,"MEAN_ANOMALY":94.5491,"EPHEMERIS_TYPE":0,"CLASSIFICATION_TYPE":"U","NORAD_CAT_ID":33065,"ELEMENT_SET_NO":999,"REV_AT_EPOCH":94823,"BSTAR":0.00030128532,"MEAN_MOTION_DOT":2.284e-5,"MEAN_MOTION_DDOT":0},{"OBJECT_NAME":"VESSELSAT 1","OBJECT_ID":"2011-058C","EPOCH":"2026-02-01T15:52:10.319520","MEAN_MOTION":14.1141185,"ECCENTRICITY":0.00135477,"INCLINATION":19.9608,"RA_OF_ASC_NODE":145.2754,"ARG_OF_PERICENTER":190.5556,"MEAN_ANOMALY":169.4564,"EPHEMERIS_TYPE":0,"CLASSIFICATION_TYPE":"U","NORAD_CAT_ID":37840,"ELEMENT_SET_NO":999,"REV_AT_EPOCH":73876,"BSTAR":5.5674858e-5,"MEAN_MOTION_DOT":3.68e-6,"MEAN_MOTION_DDOT":0},{"OBJECT_NAME":"ORBCOMM FM109","OBJECT_ID":"2014-040A","EPOCH":"2026-02-01T23:09:19.406016","MEAN_MOTION":14.58658863,"ECCENTRICITY":0.00024746,"INCLINATION":47.0047,"RA_OF_ASC_NODE":10.7244,"ARG_OF_PERICENTER":307.746,"MEAN_ANOMALY":52.3201,"EPHEMERIS_TYPE":0,"CLASSIFICATION_TYPE":"U","NORAD_CAT_ID":40086,"ELEMENT_SET_NO":999,"REV_AT_EPOCH":61460,"BSTAR":0.00020863136,"MEAN_MOTION_DOT":8.11e-6,"MEAN_MOTION_DDOT":0},{"OBJECT_NAME":"ORBCOMM FM107","OBJECT_ID":"2014-040B","EPOCH":"2026-02-01T21:54:35.830080","MEAN_MOTION":14.58735733,"ECCENTRICITY":0.00018715,"INCLINATION":47.0065,"RA_OF_ASC_NODE":11.8369,"ARG_OF_PERICENTER":268.7079,"MEAN_ANOMALY":91.3593,"EPHEMERIS_TYPE":0,"CLASSIFICATION_TYPE":"U","NORAD_CAT_ID":40087,"ELEMENT_SET_NO":999,"REV_AT_EPOCH":61467,"BSTAR":0.00021261714,"MEAN_MOTION_DOT":8.31e-6,"MEAN_MOTION_DDOT":0},{"OBJECT_NAME":"ORBCOMM FM106","OBJECT_ID":"2014-040C","EPOCH":"2026-02-01T19:00:59.313888","MEAN_MOTION":14.70202805,"ECCENTRICITY":0.00156831,"INCLINATION":47.0587,"RA_OF_ASC_NODE":175.9158,"ARG_OF_PERICENTER":53.5532,"MEAN_ANOMALY":306.6802,"EPHEMERIS_TYPE":0,"CLASSIFICATION_TYPE":"U","NORAD_CAT_ID":40088,"ELEMENT_SET_NO":999,"REV_AT_EPOCH":61725,"BSTAR":0.00023036123,"MEAN_MOTION_DOT":1.214e-5,"MEAN_MOTION_DDOT":0}]
